HULIANWANG DIGUI-28     
1 63695U 25086J   26204.28033257  .00000048  00000+0  77644-4 0  9997
2 63695  86.5018 300.7725 0002221 109.0218 251.1157 13.24411401 59637
HULIANWANG DIGUI-29     
1 63696U 25086K   26204.27280950  .00000036  00000+0  50159-4 0  9990
2 63696  86.5046 300.8928 0002113 111.8845 248.2514 13.24411765 59639
HULIANWANG DIGUI-30     
1 64283U 25121A   26204.20471119  .00000041  00000+0  61047-4 0  9999
2 64283  86.5004   1.4030 0001881  89.2662 270.8687 13.24409779 54921
HULIANWANG DIGUI-31     
1 64284U 25121B   26204.27272666  .00000029  00000+0  33768-4 0  9998
2 64284  86.5025   1.4582 0001885  89.4723 270.6627 13.24414713 54938
HULIANWANG DIGUI-32     
1 64285U 25121C   26204.26505300  .00000043  00000+0  67002-4 0  9996
2 64285  86.4967   1.2111 0001898  93.7897 266.3455 13.24410660 54931
HULIANWANG DIGUI-33     
1 64286U 25121D   26204.25750642  .00000043  00000+0  65046-4 0  9993
2 64286  86.5024   1.4468 0001906  89.6376 270.4977 13.24410239 54937
HULIANWANG DIGUI-34     
1 64287U 25121E   26204.24998476  .00000049  00000+0  80869-4 0  9998
2 64287  86.5002   1.3511 0002000  80.6514 279.4846 13.24410913 54936
HULIANWANG DIGUI-35     
1 64956U 25159A   26204.28791328  .00000046  00000+0  74073-4 0  9990
2 64956  86.4931 270.2346 0004054  50.5772 309.5720 13.24413531 47909
HULIANWANG DIGUI-36     
1 64957U 25159B   26204.28402986  .00000048  00000+0  78463-4 0  9999
2 64957  86.4951 270.3031 0001698 104.6635 255.4687 13.24408984 47901
HULIANWANG DIGUI-37     
1 64958U 25159C   26204.27645482  .00000051  00000+0  85145-4 0  9998
2 64958  86.4892 270.0886 0001783  99.2466 260.8870 13.24409727 47907
HULIANWANG DIGUI-38     
1 64959U 25159D   26204.26893755  .00000031  00000+0  36982-4 0  9999
2 64959  86.4950 270.2960 0001844  99.4115 260.7227 13.24409377 47905
HULIANWANG DIGUI-39     
1 64960U 25159E   26204.26137065  .00000015  00000+0  68748-6 0  9995
2 64960  86.4926 270.2057 0001845 102.5247 257.6093 13.24409245 47900
HULIANWANG DIGUI-40     
1 65043U 25162A   26204.25224996 -.00000086  00000+0  83021-4 0  9999
2 65043  49.9991 136.5794 0000282   3.7246 356.3628 13.29327728 48144
HULIANWANG DIGUI-41     
1 65044U 25162B   26204.24391598 -.00000087  00000+0  80697-4 0  9999
2 65044  50.0000 136.5641 0000279  12.7422 347.3457 13.29327317 48157
HULIANWANG DIGUI-42     
1 65045U 25162C   26204.23549188 -.00000108  00000+0  35273-4 0  9993
2 65045  49.9966 136.4220 0000275   4.6918 355.3957 13.29327878 48150
HULIANWANG DIGUI-43     
1 65046U 25162D   26204.22718452 -.00000086  00000+0  81040-4 0  9993
2 65046  49.9982 136.4287 0000311 357.8869   2.2001 13.29326611 48153
