{"fetched_at":"2026-07-23T17:55:34.243Z","source":"https://celestrak.org/NORAD/elements/gp.php?NAME=HULIANWANG&FORMAT=JSON","constellation":"guowang","records":[{"OBJECT_NAME":"HULIANWANG DIGUI-28","OBJECT_ID":"2025-086J","EPOCH":"2026-07-23T06:43:40.734048","CLASSIFICATION_TYPE":"U","MEAN_MOTION":13.24411401,"ECCENTRICITY":0.00022217,"INCLINATION":86.5018,"RA_OF_ASC_NODE":300.7725,"ARG_OF_PERICENTER":109.0218,"MEAN_ANOMALY":251.1157,"EPHEMERIS_TYPE":0,"NORAD_CAT_ID":63695,"ELEMENT_SET_NO":999,"REV_AT_EPOCH":5963,"BSTAR":0.000077643806,"MEAN_MOTION_DOT":4.8e-7,"MEAN_MOTION_DDOT":0},{"OBJECT_NAME":"HULIANWANG DIGUI-29","OBJECT_ID":"2025-086K","EPOCH":"2026-07-23T06:32:50.740800","CLASSIFICATION_TYPE":"U","MEAN_MOTION":13.24411765,"ECCENTRICITY":0.00021138,"INCLINATION":86.5046,"RA_OF_ASC_NODE":300.8928,"ARG_OF_PERICENTER":111.8845,"MEAN_ANOMALY":248.2514,"EPHEMERIS_TYPE":0,"NORAD_CAT_ID":63696,"ELEMENT_SET_NO":999,"REV_AT_EPOCH":5963,"BSTAR":0.000050158653,"MEAN_MOTION_DOT":3.6e-7,"MEAN_MOTION_DDOT":0},{"OBJECT_NAME":"HULIANWANG DIGUI-30","OBJECT_ID":"2025-121A","EPOCH":"2026-07-23T04:54:47.046816","CLASSIFICATION_TYPE":"U","MEAN_MOTION":13.24409779,"ECCENTRICITY":0.00018813,"INCLINATION":86.5004,"RA_OF_ASC_NODE":1.403,"ARG_OF_PERICENTER":89.2662,"MEAN_ANOMALY":270.8687,"EPHEMERIS_TYPE":0,"NORAD_CAT_ID":64283,"ELEMENT_SET_NO":999,"REV_AT_EPOCH":5492,"BSTAR":0.000061046807,"MEAN_MOTION_DOT":4.1e-7,"MEAN_MOTION_DDOT":0},{"OBJECT_NAME":"HULIANWANG DIGUI-31","OBJECT_ID":"2025-121B","EPOCH":"2026-07-23T06:32:43.583424","CLASSIFICATION_TYPE":"U","MEAN_MOTION":13.24414713,"ECCENTRICITY":0.00018859,"INCLINATION":86.5025,"RA_OF_ASC_NODE":1.4582,"ARG_OF_PERICENTER":89.4723,"MEAN_ANOMALY":270.6627,"EPHEMERIS_TYPE":0,"NORAD_CAT_ID":64284,"ELEMENT_SET_NO":999,"REV_AT_EPOCH":5493,"BSTAR":0.00003376792,"MEAN_MOTION_DOT":2.9e-7,"MEAN_MOTION_DDOT":0},{"OBJECT_NAME":"HULIANWANG DIGUI-32","OBJECT_ID":"2025-121C","EPOCH":"2026-07-23T06:21:40.579200","CLASSIFICATION_TYPE":"U","MEAN_MOTION":13.2441066,"ECCENTRICITY":0.00018983,"INCLINATION":86.4967,"RA_OF_ASC_NODE":1.2111,"ARG_OF_PERICENTER":93.7897,"MEAN_ANOMALY":266.3455,"EPHEMERIS_TYPE":0,"NORAD_CAT_ID":64285,"ELEMENT_SET_NO":999,"REV_AT_EPOCH":5493,"BSTAR":0.00006700199,"MEAN_MOTION_DOT":4.3e-7,"MEAN_MOTION_DDOT":0},{"OBJECT_NAME":"HULIANWANG DIGUI-33","OBJECT_ID":"2025-121D","EPOCH":"2026-07-23T06:10:48.554688","CLASSIFICATION_TYPE":"U","MEAN_MOTION":13.24410239,"ECCENTRICITY":0.00019063,"INCLINATION":86.5024,"RA_OF_ASC_NODE":1.4468,"ARG_OF_PERICENTER":89.6376,"MEAN_ANOMALY":270.4977,"EPHEMERIS_TYPE":0,"NORAD_CAT_ID":64286,"ELEMENT_SET_NO":999,"REV_AT_EPOCH":5493,"BSTAR":0.000065045509,"MEAN_MOTION_DOT":4.3e-7,"MEAN_MOTION_DDOT":0},{"OBJECT_NAME":"HULIANWANG DIGUI-34","OBJECT_ID":"2025-121E","EPOCH":"2026-07-23T05:59:58.683264","CLASSIFICATION_TYPE":"U","MEAN_MOTION":13.24410913,"ECCENTRICITY":0.00020008,"INCLINATION":86.5002,"RA_OF_ASC_NODE":1.3511,"ARG_OF_PERICENTER":80.6514,"MEAN_ANOMALY":279.4846,"EPHEMERIS_TYPE":0,"NORAD_CAT_ID":64287,"ELEMENT_SET_NO":999,"REV_AT_EPOCH":5493,"BSTAR":0.000080868972,"MEAN_MOTION_DOT":4.9e-7,"MEAN_MOTION_DDOT":0},{"OBJECT_NAME":"HULIANWANG DIGUI-35","OBJECT_ID":"2025-159A","EPOCH":"2026-07-23T06:54:35.707392","CLASSIFICATION_TYPE":"U","MEAN_MOTION":13.24413531,"ECCENTRICITY":0.00040546,"INCLINATION":86.4931,"RA_OF_ASC_NODE":270.2346,"ARG_OF_PERICENTER":50.5772,"MEAN_ANOMALY":309.572,"EPHEMERIS_TYPE":0,"NORAD_CAT_ID":64956,"ELEMENT_SET_NO":999,"REV_AT_EPOCH":4790,"BSTAR":0.000074072638,"MEAN_MOTION_DOT":4.6e-7,"MEAN_MOTION_DDOT":0},{"OBJECT_NAME":"HULIANWANG DIGUI-36","OBJECT_ID":"2025-159B","EPOCH":"2026-07-23T06:49:00.179904","CLASSIFICATION_TYPE":"U","MEAN_MOTION":13.24408984,"ECCENTRICITY":0.00016983,"INCLINATION":86.4951,"RA_OF_ASC_NODE":270.3031,"ARG_OF_PERICENTER":104.6635,"MEAN_ANOMALY":255.4687,"EPHEMERIS_TYPE":0,"NORAD_CAT_ID":64957,"ELEMENT_SET_NO":999,"REV_AT_EPOCH":4790,"BSTAR":0.000078462655,"MEAN_MOTION_DOT":4.8e-7,"MEAN_MOTION_DDOT":0},{"OBJECT_NAME":"HULIANWANG DIGUI-37","OBJECT_ID":"2025-159C","EPOCH":"2026-07-23T06:38:05.696448","CLASSIFICATION_TYPE":"U","MEAN_MOTION":13.24409727,"ECCENTRICITY":0.00017831,"INCLINATION":86.4892,"RA_OF_ASC_NODE":270.0886,"ARG_OF_PERICENTER":99.2466,"MEAN_ANOMALY":260.887,"EPHEMERIS_TYPE":0,"NORAD_CAT_ID":64958,"ELEMENT_SET_NO":999,"REV_AT_EPOCH":4790,"BSTAR":0.000085144926,"MEAN_MOTION_DOT":5.1e-7,"MEAN_MOTION_DDOT":0},{"OBJECT_NAME":"HULIANWANG DIGUI-38","OBJECT_ID":"2025-159D","EPOCH":"2026-07-23T06:27:16.204320","CLASSIFICATION_TYPE":"U","MEAN_MOTION":13.24409377,"ECCENTRICITY":0.00018447,"INCLINATION":86.495,"RA_OF_ASC_NODE":270.296,"ARG_OF_PERICENTER":99.4115,"MEAN_ANOMALY":260.7227,"EPHEMERIS_TYPE":0,"NORAD_CAT_ID":64959,"ELEMENT_SET_NO":999,"REV_AT_EPOCH":4790,"BSTAR":0.000036982073,"MEAN_MOTION_DOT":3.1e-7,"MEAN_MOTION_DDOT":0},{"OBJECT_NAME":"HULIANWANG DIGUI-39","OBJECT_ID":"2025-159E","EPOCH":"2026-07-23T06:16:22.424160","CLASSIFICATION_TYPE":"U","MEAN_MOTION":13.24409245,"ECCENTRICITY":0.00018454,"INCLINATION":86.4926,"RA_OF_ASC_NODE":270.2057,"ARG_OF_PERICENTER":102.5247,"MEAN_ANOMALY":257.6093,"EPHEMERIS_TYPE":0,"NORAD_CAT_ID":64960,"ELEMENT_SET_NO":999,"REV_AT_EPOCH":4790,"BSTAR":6.87484e-7,"MEAN_MOTION_DOT":1.5e-7,"MEAN_MOTION_DDOT":0},{"OBJECT_NAME":"HULIANWANG DIGUI-40","OBJECT_ID":"2025-162A","EPOCH":"2026-07-23T06:03:14.396544","CLASSIFICATION_TYPE":"U","MEAN_MOTION":13.29327728,"ECCENTRICITY":0.00002827,"INCLINATION":49.9991,"RA_OF_ASC_NODE":136.5794,"ARG_OF_PERICENTER":3.7246,"MEAN_ANOMALY":356.3628,"EPHEMERIS_TYPE":0,"NORAD_CAT_ID":65043,"ELEMENT_SET_NO":999,"REV_AT_EPOCH":4814,"BSTAR":0.000083020787,"MEAN_MOTION_DOT":-8.6e-7,"MEAN_MOTION_DDOT":0},{"OBJECT_NAME":"HULIANWANG DIGUI-41","OBJECT_ID":"2025-162B","EPOCH":"2026-07-23T05:51:14.340672","CLASSIFICATION_TYPE":"U","MEAN_MOTION":13.29327317,"ECCENTRICITY":0.00002794,"INCLINATION":50,"RA_OF_ASC_NODE":136.5641,"ARG_OF_PERICENTER":12.7422,"MEAN_ANOMALY":347.3457,"EPHEMERIS_TYPE":0,"NORAD_CAT_ID":65044,"ELEMENT_SET_NO":999,"REV_AT_EPOCH":4815,"BSTAR":0.000080696621,"MEAN_MOTION_DOT":-8.7e-7,"MEAN_MOTION_DDOT":0},{"OBJECT_NAME":"HULIANWANG DIGUI-42","OBJECT_ID":"2025-162C","EPOCH":"2026-07-23T05:39:06.498432","CLASSIFICATION_TYPE":"U","MEAN_MOTION":13.29327878,"ECCENTRICITY":0.00002757,"INCLINATION":49.9966,"RA_OF_ASC_NODE":136.422,"ARG_OF_PERICENTER":4.6918,"MEAN_ANOMALY":355.3957,"EPHEMERIS_TYPE":0,"NORAD_CAT_ID":65045,"ELEMENT_SET_NO":999,"REV_AT_EPOCH":4815,"BSTAR":0.000035272778,"MEAN_MOTION_DOT":-0.00000108,"MEAN_MOTION_DDOT":0},{"OBJECT_NAME":"HULIANWANG DIGUI-43","OBJECT_ID":"2025-162D","EPOCH":"2026-07-23T05:27:08.742528","CLASSIFICATION_TYPE":"U","MEAN_MOTION":13.29326611,"ECCENTRICITY":0.00003114,"INCLINATION":49.9982,"RA_OF_ASC_NODE":136.4287,"ARG_OF_PERICENTER":357.8869,"MEAN_ANOMALY":2.2001,"EPHEMERIS_TYPE":0,"NORAD_CAT_ID":65046,"ELEMENT_SET_NO":999,"REV_AT_EPOCH":4815,"BSTAR":0.000081040049,"MEAN_MOTION_DOT":-8.6e-7,"MEAN_MOTION_DDOT":0}]}
